{
  "type": "FeatureCollection",
  "features": [
    {
      "type": "Feature",
      "properties": {
        "norad_id": 47012,
        "name": "FENGYUN 1C DEB",
        "group": "fengyun-1c-debris",
        "lat": -81.05564670192945,
        "lon": -31.236194905685082,
        "alt_km": 1082.422128333771,
        "timestamp": "2025-12-14T16:47:40.974271+00:00",
        "meta_object_name": "FENGYUN 1C DEB",
        "meta_object_id": "1999-025FAN",
        "meta_epoch": "2025-12-05T22:22:36.481152",
        "meta_mean_motion": 13.77908149,
        "meta_eccentricity": 0.01638485,
        "meta_inclination": 98.755,
        "meta_ra_of_asc_node": 218.9381,
        "meta_arg_of_pericenter": 81.7177,
        "meta_mean_anomaly": 280.2518,
        "meta_ephemeris_type": 0,
        "meta_classification_type": "U",
        "meta_norad_cat_id": 47012,
        "meta_element_set_no": 999,
        "meta_rev_at_epoch": 54479,
        "meta_bstar": 0.00065808903,
        "meta_mean_motion_dot": 6.91e-06,
        "meta_mean_motion_ddot": 0,
        "tle_line1": "1 47012U 99025FAN 25339.93236668  .00000691  00000+0  65809-3 0  9990",
        "tle_line2": "2 47012  98.7550 218.9381 0163848  81.7177 280.2518 13.77908149544797"
      },
      "geometry": {
        "type": "Point",
        "coordinates": [
          -31.236194905685082,
          -81.05564670192945
        ]
      }
    },
    {
      "type": "Feature",
      "properties": {
        "norad_id": 47013,
        "name": "FENGYUN 1C DEB",
        "group": "fengyun-1c-debris",
        "lat": 20.726288847776544,
        "lon": 55.262839548766884,
        "alt_km": 835.7891666617516,
        "timestamp": "2025-12-14T16:47:40.974283+00:00",
        "meta_object_name": "FENGYUN 1C DEB",
        "meta_object_id": "1999-025FAP",
        "meta_epoch": "2025-11-16T11:10:59.954016",
        "meta_mean_motion": 14.24672933,
        "meta_eccentricity": 0.00559466,
        "meta_inclination": 98.0819,
        "meta_ra_of_asc_node": 32.3431,
        "meta_arg_of_pericenter": 238.0397,
        "meta_mean_anomaly": 121.5338,
        "meta_ephemeris_type": 0,
        "meta_classification_type": "U",
        "meta_norad_cat_id": 47013,
        "meta_element_set_no": 999,
        "meta_rev_at_epoch": 72885,
        "meta_bstar": 0.0028202138,
        "meta_mean_motion_dot": 6.632e-05,
        "meta_mean_motion_ddot": 0,
        "tle_line1": "1 47013U 99025FAP 25320.46597169  .00006632  00000+0  28202-2 0  9991",
        "tle_line2": "2 47013  98.0819  32.3431 0055946 238.0397 121.5338 14.24672933728853"
      },
      "geometry": {
        "type": "Point",
        "coordinates": [
          55.262839548766884,
          20.726288847776544
        ]
      }
    },
    {
      "type": "Feature",
      "properties": {
        "norad_id": 47015,
        "name": "FENGYUN 1C DEB",
        "group": "fengyun-1c-debris",
        "lat": -66.80829358034046,
        "lon": 66.5702680569166,
        "alt_km": 735.4349800179807,
        "timestamp": "2025-12-14T16:47:40.974293+00:00",
        "meta_object_name": "FENGYUN 1C DEB",
        "meta_object_id": "1999-025FAR",
        "meta_epoch": "2025-12-12T10:12:55.009152",
        "meta_mean_motion": 14.87360406,
        "meta_eccentricity": 0.01758364,
        "meta_inclination": 98.7107,
        "meta_ra_of_asc_node": 43.1065,
        "meta_arg_of_pericenter": 113.6048,
        "meta_mean_anomaly": 248.3739,
        "meta_ephemeris_type": 0,
        "meta_classification_type": "U",
        "meta_norad_cat_id": 47015,
        "meta_element_set_no": 999,
        "meta_rev_at_epoch": 64377,
        "meta_bstar": 0.0010891837,
        "meta_mean_motion_dot": 0.00013037,
        "meta_mean_motion_ddot": 0,
        "tle_line1": "1 47015U 99025FAR 25346.42563668  .00013037  00000+0  10892-2 0  9997",
        "tle_line2": "2 47015  98.7107  43.1065 0175836 113.6048 248.3739 14.87360406643775"
      },
      "geometry": {
        "type": "Point",
        "coordinates": [
          66.5702680569166,
          -66.80829358034046
        ]
      }
    },
    {
      "type": "Feature",
      "properties": {
        "norad_id": 47025,
        "name": "FENGYUN 1C DEB",
        "group": "fengyun-1c-debris",
        "lat": -13.32239557211672,
        "lon": -162.47905226850872,
        "alt_km": 713.2906390352218,
        "timestamp": "2025-12-14T16:47:40.974303+00:00",
        "meta_object_name": "FENGYUN 1C DEB",
        "meta_object_id": "1999-025FBB",
        "meta_epoch": "2025-12-13T08:27:16.202304",
        "meta_mean_motion": 14.46309382,
        "meta_eccentricity": 0.00406622,
        "meta_inclination": 99.0339,
        "meta_ra_of_asc_node": 193.9267,
        "meta_arg_of_pericenter": 355.6489,
        "meta_mean_anomaly": 178.8513,
        "meta_ephemeris_type": 0,
        "meta_classification_type": "U",
        "meta_norad_cat_id": 47025,
        "meta_element_set_no": 999,
        "meta_rev_at_epoch": 62750,
        "meta_bstar": 0.0035827231,
        "meta_mean_motion_dot": 0.0001295,
        "meta_mean_motion_ddot": 0,
        "tle_line1": "1 47025U 99025FBB 25347.35227086  .00012950  00000+0  35827-2 0  9990",
        "tle_line2": "2 47025  99.0339 193.9267 0040662 355.6489 178.8513 14.46309382627501"
      },
      "geometry": {
        "type": "Point",
        "coordinates": [
          -162.47905226850872,
          -13.32239557211672
        ]
      }
    },
    {
      "type": "Feature",
      "properties": {
        "norad_id": 47036,
        "name": "FENGYUN 1C DEB",
        "group": "fengyun-1c-debris",
        "lat": -68.85930721983232,
        "lon": 55.46032842107043,
        "alt_km": 896.4101271395821,
        "timestamp": "2025-12-14T16:47:40.974313+00:00",
        "meta_object_name": "FENGYUN 1C DEB",
        "meta_object_id": "1999-025FBN",
        "meta_epoch": "2025-12-13T21:36:35.845632",
        "meta_mean_motion": 14.15176928,
        "meta_eccentricity": 0.00688587,
        "meta_inclination": 98.7222,
        "meta_ra_of_asc_node": 31.2877,
        "meta_arg_of_pericenter": 94.4248,
        "meta_mean_anomaly": 84.992,
        "meta_ephemeris_type": 0,
        "meta_classification_type": "U",
        "meta_norad_cat_id": 47036,
        "meta_element_set_no": 999,
        "meta_rev_at_epoch": 59943,
        "meta_bstar": 0.0001889836,
        "meta_mean_motion_dot": 3.33e-06,
        "meta_mean_motion_ddot": 0,
        "tle_line1": "1 47036U 99025FBN 25347.90041488  .00000333  00000+0  18898-3 0  9995",
        "tle_line2": "2 47036  98.7222  31.2877 0068858  94.4248  84.9920 14.15176928599432"
      },
      "geometry": {
        "type": "Point",
        "coordinates": [
          55.46032842107043,
          -68.85930721983232
        ]
      }
    },
    {
      "type": "Feature",
      "properties": {
        "norad_id": 47040,
        "name": "FENGYUN 1C DEB",
        "group": "fengyun-1c-debris",
        "lat": 14.87701554573588,
        "lon": -107.03713423387346,
        "alt_km": 910.481134325033,
        "timestamp": "2025-12-14T16:47:40.974324+00:00",
        "meta_object_name": "FENGYUN 1C DEB",
        "meta_object_id": "1999-025FBS",
        "meta_epoch": "2025-12-10T23:56:36.325824",
        "meta_mean_motion": 14.06483958,
        "meta_eccentricity": 0.00627252,
        "meta_inclination": 100.2943,
        "meta_ra_of_asc_node": 251.5252,
        "meta_arg_of_pericenter": 237.4301,
        "meta_mean_anomaly": 122.0795,
        "meta_ephemeris_type": 0,
        "meta_classification_type": "U",
        "meta_norad_cat_id": 47040,
        "meta_element_set_no": 999,
        "meta_rev_at_epoch": 89084,
        "meta_bstar": 0.00064394729,
        "meta_mean_motion_dot": 1.028e-05,
        "meta_mean_motion_ddot": 0,
        "tle_line1": "1 47040U 99025FBS 25344.99764266  .00001028  00000+0  64395-3 0  9997",
        "tle_line2": "2 47040 100.2943 251.5252 0062725 237.4301 122.0795 14.06483958890843"
      },
      "geometry": {
        "type": "Point",
        "coordinates": [
          -107.03713423387346,
          14.87701554573588
        ]
      }
    },
    {
      "type": "Feature",
      "properties": {
        "norad_id": 47041,
        "name": "FENGYUN 1C DEB",
        "group": "fengyun-1c-debris",
        "lat": -73.8712779680805,
        "lon": 45.499457597358784,
        "alt_km": 554.3177031482546,
        "timestamp": "2025-12-14T16:47:40.974337+00:00",
        "meta_object_name": "FENGYUN 1C DEB",
        "meta_object_id": "1999-025FBT",
        "meta_epoch": "2025-12-10T19:53:59.087040",
        "meta_mean_motion": 15.06982698,
        "meta_eccentricity": 0.00146942,
        "meta_inclination": 98.256,
        "meta_ra_of_asc_node": 11.2097,
        "meta_arg_of_pericenter": 191.3996,
        "meta_mean_anomaly": 344.1998,
        "meta_ephemeris_type": 0,
        "meta_classification_type": "U",
        "meta_norad_cat_id": 47041,
        "meta_element_set_no": 999,
        "meta_rev_at_epoch": 71160,
        "meta_bstar": 0.0030573384,
        "meta_mean_motion_dot": 0.00046063,
        "meta_mean_motion_ddot": 0,
        "tle_line1": "1 47041U 99025FBT 25344.82915610  .00046063  00000+0  30573-2 0  9999",
        "tle_line2": "2 47041  98.2560  11.2097 0014694 191.3996 344.1998 15.06982698711607"
      },
      "geometry": {
        "type": "Point",
        "coordinates": [
          45.499457597358784,
          -73.8712779680805
        ]
      }
    }
  ]
}